{"fetchedAt":"2026-06-29T18:07:57.270Z","satellites":[{"id":"44865","name":"BEIDOU-3 M20 (C42)","constellationId":"beidou","omm":{"OBJECT_NAME":"BEIDOU-3 M20 (C42)","OBJECT_ID":"2019-090B","EPOCH":"2026-06-29T09:50:57.937056","MEAN_MOTION":1.86231898,"ECCENTRICITY":0.0015172,"INCLINATION":56.5707,"RA_OF_ASC_NODE":62.4211,"ARG_OF_PERICENTER":311.8095,"MEAN_ANOMALY":226.6993,"EPHEMERIS_TYPE":0,"CLASSIFICATION_TYPE":"U","NORAD_CAT_ID":44865,"ELEMENT_SET_NO":999,"REV_AT_EPOCH":4444,"BSTAR":0,"MEAN_MOTION_DOT":-5.6e-7,"MEAN_MOTION_DDOT":0}},{"id":"45344","name":"BEIDOU-3 G2 (C60)","constellationId":"beidou","omm":{"OBJECT_NAME":"BEIDOU-3 G2 (C60)","OBJECT_ID":"2020-017A","EPOCH":"2026-06-29T12:47:38.382432","MEAN_MOTION":1.0027196,"ECCENTRICITY":0.0002605,"INCLINATION":2.8886,"RA_OF_ASC_NODE":47.5319,"ARG_OF_PERICENTER":42.098,"MEAN_ANOMALY":99.9885,"EPHEMERIS_TYPE":0,"CLASSIFICATION_TYPE":"U","NORAD_CAT_ID":45344,"ELEMENT_SET_NO":999,"REV_AT_EPOCH":2338,"BSTAR":0,"MEAN_MOTION_DOT":-0.00000132,"MEAN_MOTION_DDOT":0}},{"id":"45807","name":"BEIDOU-3 G3 (C61)","constellationId":"beidou","omm":{"OBJECT_NAME":"BEIDOU-3 G3 (C61)","OBJECT_ID":"2020-040A","EPOCH":"2026-06-29T12:56:16.436832","MEAN_MOTION":1.00273361,"ECCENTRICITY":0.0002577,"INCLINATION":2.477,"RA_OF_ASC_NODE":67.4762,"ARG_OF_PERICENTER":331.6872,"MEAN_ANOMALY":183.0831,"EPHEMERIS_TYPE":0,"CLASSIFICATION_TYPE":"U","NORAD_CAT_ID":45807,"ELEMENT_SET_NO":999,"REV_AT_EPOCH":2219,"BSTAR":0,"MEAN_MOTION_DOT":-0.00000345,"MEAN_MOTION_DDOT":0}},{"id":"56564","name":"BEIDOU-3 G4 (C62)","constellationId":"beidou","omm":{"OBJECT_NAME":"BEIDOU-3 G4 (C62)","OBJECT_ID":"2023-066A","EPOCH":"2026-06-29T13:04:43.349088","MEAN_MOTION":1.00270148,"ECCENTRICITY":0.0004938,"INCLINATION":0.4735,"RA_OF_ASC_NODE":334.598,"ARG_OF_PERICENTER":175.4889,"MEAN_ANOMALY":103.7638,"EPHEMERIS_TYPE":0,"CLASSIFICATION_TYPE":"U","NORAD_CAT_ID":56564,"ELEMENT_SET_NO":999,"REV_AT_EPOCH":1151,"BSTAR":0,"MEAN_MOTION_DOT":-0.0000027,"MEAN_MOTION_DDOT":0}},{"id":"58654","name":"BEIDOU-3 M28 (C50)","constellationId":"beidou","omm":{"OBJECT_NAME":"BEIDOU-3 M28 (C50)","OBJECT_ID":"2023-207A","EPOCH":"2026-06-29T02:41:49.545600","MEAN_MOTION":1.86229916,"ECCENTRICITY":0.000291,"INCLINATION":55.7632,"RA_OF_ASC_NODE":61.9007,"ARG_OF_PERICENTER":353.7174,"MEAN_ANOMALY":6.3357,"EPHEMERIS_TYPE":0,"CLASSIFICATION_TYPE":"U","NORAD_CAT_ID":58654,"ELEMENT_SET_NO":999,"REV_AT_EPOCH":1706,"BSTAR":0,"MEAN_MOTION_DOT":-6.1e-7,"MEAN_MOTION_DDOT":0}},{"id":"58655","name":"BEIDOU-3 M26 (C48)","constellationId":"beidou","omm":{"OBJECT_NAME":"BEIDOU-3 M26 (C48)","OBJECT_ID":"2023-207B","EPOCH":"2026-06-28T08:56:59.824896","MEAN_MOTION":1.86229888,"ECCENTRICITY":0.00025895,"INCLINATION":55.7647,"RA_OF_ASC_NODE":61.9122,"ARG_OF_PERICENTER":322.906,"MEAN_ANOMALY":37.129,"EPHEMERIS_TYPE":0,"CLASSIFICATION_TYPE":"U","NORAD_CAT_ID":58655,"ELEMENT_SET_NO":999,"REV_AT_EPOCH":1703,"BSTAR":0,"MEAN_MOTION_DOT":-6.8e-7,"MEAN_MOTION_DDOT":0}},{"id":"61186","name":"BEIDOU-3 M25 (C47)","constellationId":"beidou","omm":{"OBJECT_NAME":"BEIDOU-3 M25 (C47)","OBJECT_ID":"2024-168B","EPOCH":"2026-06-26T16:31:15.592224","MEAN_MOTION":1.86230368,"ECCENTRICITY":0.0003152,"INCLINATION":54.4642,"RA_OF_ASC_NODE":301.9122,"ARG_OF_PERICENTER":298.5828,"MEAN_ANOMALY":129.452,"EPHEMERIS_TYPE":0,"CLASSIFICATION_TYPE":"U","NORAD_CAT_ID":61186,"ELEMENT_SET_NO":999,"REV_AT_EPOCH":1196,"BSTAR":0,"MEAN_MOTION_DOT":-0.000001,"MEAN_MOTION_DDOT":0}},{"id":"61187","name":"BEIDOU-3 M27 (C49)","constellationId":"beidou","omm":{"OBJECT_NAME":"BEIDOU-3 M27 (C49)","OBJECT_ID":"2024-168C","EPOCH":"2026-06-28T12:52:16.180032","MEAN_MOTION":1.86230465,"ECCENTRICITY":0.00013152,"INCLINATION":54.4577,"RA_OF_ASC_NODE":301.8311,"ARG_OF_PERICENTER":47.2541,"MEAN_ANOMALY":314.749,"EPHEMERIS_TYPE":0,"CLASSIFICATION_TYPE":"U","NORAD_CAT_ID":61187,"ELEMENT_SET_NO":999,"REV_AT_EPOCH":947,"BSTAR":0,"MEAN_MOTION_DOT":-8.6e-7,"MEAN_MOTION_DDOT":0}}]}