BEIDOU-3 M20 (C42)      
1 44865U 19090B   26180.41039279 -.00000056  00000+0  00000+0 0  9998
2 44865  56.5707  62.4211 0015172 311.8095 226.6993  1.86231898 44447
BEIDOU-3 G2 (C60)       
1 45344U 20017A   26180.53308313 -.00000132  00000+0  00000+0 0  9998
2 45344   2.8886  47.5319 0002605  42.0980  99.9885  1.00271960 23389
BEIDOU-3 G3 (C61)       
1 45807U 20040A   26180.53907913 -.00000345  00000+0  00000+0 0  9995
2 45807   2.4770  67.4762 0002577 331.6872 183.0831  1.00273361 22190
BEIDOU-3 G4 (C62)       
1 56564U 23066A   26180.54494617 -.00000270  00000+0  00000+0 0  9998
2 56564   0.4735 334.5980 0004938 175.4889 103.7638  1.00270148 11514
BEIDOU-3 M28 (C50)      
1 58654U 23207A   26180.11237900 -.00000061  00000+0  00000+0 0  9998
2 58654  55.7632  61.9007 0002910 353.7174   6.3357  1.86229916 17065
BEIDOU-3 M26 (C48)      
1 58655U 23207B   26179.37291464 -.00000068  00000+0  00000+0 0  9997
2 58655  55.7647  61.9122 0002589 322.9060  37.1290  1.86229888 17037
BEIDOU-3 M25 (C47)      
1 61186U 24168B   26177.68837491 -.00000100  00000+0  00000+0 0  9992
2 61186  54.4642 301.9122 0003152 298.5828 129.4520  1.86230368 11967
BEIDOU-3 M27 (C49)      
1 61187U 24168C   26179.53629838 -.00000086  00000+0  00000+0 0  9996
2 61187  54.4577 301.8311 0001315  47.2541 314.7490  1.86230465  9470
